{
    "links": {
        "self": "http://www.neowsapp.com/rest/v1/neo/3753580?api_key=iIulBulltgU6a56xZRHN4H3l9WmuAYTsLGpBGhQ2"
    },
    "id": "3753580",
    "neo_reference_id": "3753580",
    "name": "(2016 JJ38)",
    "designation": "2016 JJ38",
    "nasa_jpl_url": "http://ssd.jpl.nasa.gov/sbdb.cgi?sstr=3753580",
    "absolute_magnitude_h": 27.193,
    "estimated_diameter": {
        "kilometers": {
            "estimated_diameter_min": 0.0096817748,
            "estimated_diameter_max": 0.0216491066
        },
        "meters": {
            "estimated_diameter_min": 9.6817747991,
            "estimated_diameter_max": 21.6491065937
        },
        "miles": {
            "estimated_diameter_min": 0.0060159741,
            "estimated_diameter_max": 0.013452127
        },
        "feet": {
            "estimated_diameter_min": 31.7643540319,
            "estimated_diameter_max": 71.0272548767
        }
    },
    "is_potentially_hazardous_asteroid": false,
    "close_approach_data": [
        {
            "close_approach_date": "2014-04-16",
            "close_approach_date_full": "2014-Apr-16 06:32",
            "epoch_date_close_approach": 1397629920000,
            "relative_velocity": {
                "kilometers_per_second": "17.9307826582",
                "kilometers_per_hour": "64550.817569669",
                "miles_per_hour": "40109.3677282202"
            },
            "miss_distance": {
                "astronomical": "0.4008893033",
                "lunar": "155.9459389837",
                "kilometers": "59972185.879463971",
                "miles": "37264988.3050299598"
            },
            "orbiting_body": "Earth"
        },
        {
            "close_approach_date": "2016-04-09",
            "close_approach_date_full": "2016-Apr-09 13:36",
            "epoch_date_close_approach": 1460208960000,
            "relative_velocity": {
                "kilometers_per_second": "4.4405371577",
                "kilometers_per_hour": "15985.9337676697",
                "miles_per_hour": "9933.0375680279"
            },
            "miss_distance": {
                "astronomical": "0.0777805464",
                "lunar": "30.2566325496",
                "kilometers": "11635804.068876168",
                "miles": "7230153.3817323984"
            },
            "orbiting_body": "Earth"
        }
    ],
    "orbital_data": {
        "orbit_id": "3",
        "orbit_determination_date": "2017-04-06 08:25:49",
        "first_observation_date": "2016-05-01",
        "last_observation_date": "2016-05-03",
        "data_arc_in_days": 2,
        "observations_used": 9,
        "orbit_uncertainty": "9",
        "minimum_orbit_intersection": ".0327248",
        "jupiter_tisserand_invariant": "6.187",
        "epoch_osculation": "2457510.5",
        "eccentricity": ".2134634473821554",
        "semi_major_axis": ".9737646181547904",
        "inclination": "3.711213899027208",
        "ascending_node_longitude": "221.3984608037918",
        "orbital_period": "350.9776100901827",
        "perihelion_distance": ".7659014658247006",
        "perihelion_argument": "219.478868330905",
        "aphelion_distance": "1.18162777048488",
        "perihelion_time": "2457390.783880143609",
        "mean_anomaly": "122.7935968258115",
        "mean_motion": "1.025706454344763",
        "equinox": "J2000",
        "orbit_class": {
            "orbit_class_type": "ATE",
            "orbit_class_description": "Near-Earth asteroid orbits similar to that of 2062 Aten",
            "orbit_class_range": "a (semi-major axis) < 1.0 AU; q (perihelion) > 0.983 AU"
        }
    },
    "is_sentry_object": false
}